LEO 1 (LEO VANTAGE 1)   
1 43113U 18004C   26068.70632107  .00005709  00000+0  39603-3 0  9997
2 43113  99.2469 334.0284 0352942  24.8540 336.9207 14.67184901422891
STARLINK-30819          
1 58179U 23167E   26068.22374994 -.00001634  00000+0 -49856-4 0  9992
2 58179  42.9992 146.0509 0000954 271.5857  88.4885 15.27582538130916
